{
  "type": "FeatureCollection",
  "features": [
    {
      "type": "Feature",
      "properties": {
        "norad_id": 41599,
        "name": "CARTOSAT-2C",
        "group": "resource",
        "lat": 15.309847300064588,
        "lon": 50.267984308018484,
        "alt_km": 502.0758933491361,
        "timestamp": "2025-12-21T03:56:50.511910+00:00",
        "meta_object_name": "CARTOSAT-2C",
        "meta_object_id": "2016-040A",
        "meta_epoch": "2025-12-20T21:33:23.368032",
        "meta_mean_motion": 15.19179838,
        "meta_eccentricity": 0.0011078,
        "meta_inclination": 97.4759,
        "meta_ra_of_asc_node": 52.0646,
        "meta_arg_of_pericenter": 37.4054,
        "meta_mean_anomaly": 322.795,
        "meta_ephemeris_type": 0,
        "meta_classification_type": "U",
        "meta_norad_cat_id": 41599,
        "meta_element_set_no": 999,
        "meta_rev_at_epoch": 52664,
        "meta_bstar": 8.0733e-05,
        "meta_mean_motion_dot": 1.631e-05,
        "meta_mean_motion_ddot": 0,
        "tle_line1": "1 41599U 16040A   25354.89818713  .00001631  00000+0  80733-4 0  9998",
        "tle_line2": "2 41599  97.4759  52.0646 0011078  37.4054 322.7950 15.19179838526647"
      },
      "geometry": {
        "type": "Point",
        "coordinates": [
          50.267984308018484,
          15.309847300064588
        ]
      }
    },
    {
      "type": "Feature",
      "properties": {
        "norad_id": 41601,
        "name": "SKYSAT-C1",
        "group": "resource",
        "lat": 61.23042353157477,
        "lon": -135.40106180014115,
        "alt_km": 462.4637545806636,
        "timestamp": "2025-12-21T03:56:50.511918+00:00",
        "meta_object_name": "SKYSAT-C1",
        "meta_object_id": "2016-040C",
        "meta_epoch": "2025-12-20T13:19:58.535040",
        "meta_mean_motion": 15.32720909,
        "meta_eccentricity": 0.000147,
        "meta_inclination": 96.9811,
        "meta_ra_of_asc_node": 31.1288,
        "meta_arg_of_pericenter": 346.7095,
        "meta_mean_anomaly": 13.4109,
        "meta_ephemeris_type": 0,
        "meta_classification_type": "U",
        "meta_norad_cat_id": 41601,
        "meta_element_set_no": 999,
        "meta_rev_at_epoch": 53047,
        "meta_bstar": 0.00018789,
        "meta_mean_motion_dot": 5.865e-05,
        "meta_mean_motion_ddot": 0,
        "tle_line1": "1 41601U 16040C   25354.55553860  .00005865  00000+0  18789-3 0  9998",
        "tle_line2": "2 41601  96.9811  31.1288 0001470 346.7095  13.4109 15.32720909530472"
      },
      "geometry": {
        "type": "Point",
        "coordinates": [
          -135.40106180014115,
          61.23042353157477
        ]
      }
    },
    {
      "type": "Feature",
      "properties": {
        "norad_id": 41603,
        "name": "LAPAN-A3",
        "group": "resource",
        "lat": -48.533751653609315,
        "lon": 164.2563352817569,
        "alt_km": 475.90615399852595,
        "timestamp": "2025-12-21T03:56:50.511928+00:00",
        "meta_object_name": "LAPAN-A3",
        "meta_object_id": "2016-040E",
        "meta_epoch": "2025-12-20T20:40:40.434240",
        "meta_mean_motion": 15.3161154,
        "meta_eccentricity": 0.0008911,
        "meta_inclination": 97.1424,
        "meta_ra_of_asc_node": 352.1224,
        "meta_arg_of_pericenter": 300.8487,
        "meta_mean_anomaly": 59.1878,
        "meta_ephemeris_type": 0,
        "meta_classification_type": "U",
        "meta_norad_cat_id": 41603,
        "meta_element_set_no": 999,
        "meta_rev_at_epoch": 52750,
        "meta_bstar": 9.5617e-05,
        "meta_mean_motion_dot": 2.847e-05,
        "meta_mean_motion_ddot": 0,
        "tle_line1": "1 41603U 16040E   25354.86157910  .00002847  00000+0  95617-4 0  9993",
        "tle_line2": "2 41603  97.1424 352.1224 0008911 300.8487  59.1878 15.31611540527505"
      },
      "geometry": {
        "type": "Point",
        "coordinates": [
          164.2563352817569,
          -48.533751653609315
        ]
      }
    },
    {
      "type": "Feature",
      "properties": {
        "norad_id": 41604,
        "name": "BIROS",
        "group": "resource",
        "lat": 60.62360827560497,
        "lon": 14.218916583972865,
        "alt_km": 287.6419762709511,
        "timestamp": "2025-12-21T03:56:50.511937+00:00",
        "meta_object_name": "BIROS",
        "meta_object_id": "2016-040F",
        "meta_epoch": "2025-12-20T12:36:42.537312",
        "meta_mean_motion": 15.92640057,
        "meta_eccentricity": 0.0003516,
        "meta_inclination": 97.0689,
        "meta_ra_of_asc_node": 26.2866,
        "meta_arg_of_pericenter": 133.472,
        "meta_mean_anomaly": 226.6848,
        "meta_ephemeris_type": 0,
        "meta_classification_type": "U",
        "meta_norad_cat_id": 41604,
        "meta_element_set_no": 999,
        "meta_rev_at_epoch": 52996,
        "meta_bstar": 0.00051898,
        "meta_mean_motion_dot": 0.00176018,
        "meta_mean_motion_ddot": 1.3507e-05,
        "tle_line1": "1 41604U 16040F   25354.52549233  .00176018  13507-4  51898-3 0  9995",
        "tle_line2": "2 41604  97.0689  26.2866 0003516 133.4720 226.6848 15.92640057529967"
      },
      "geometry": {
        "type": "Point",
        "coordinates": [
          14.218916583972865,
          60.62360827560497
        ]
      }
    },
    {
      "type": "Feature",
      "properties": {
        "norad_id": 41727,
        "name": "GAOFEN-3",
        "group": "resource",
        "lat": -0.6864368582796,
        "lon": -179.47928681115954,
        "alt_km": 754.7257533300399,
        "timestamp": "2025-12-21T03:56:50.511946+00:00",
        "meta_object_name": "GAOFEN-3",
        "meta_object_id": "2016-049A",
        "meta_epoch": "2025-12-20T20:27:09.128736",
        "meta_mean_motion": 14.42214865,
        "meta_eccentricity": 0.0001239,
        "meta_inclination": 98.4031,
        "meta_ra_of_asc_node": 0.3147,
        "meta_arg_of_pericenter": 57.6749,
        "meta_mean_anomaly": 302.4561,
        "meta_ephemeris_type": 0,
        "meta_classification_type": "U",
        "meta_norad_cat_id": 41727,
        "meta_element_set_no": 999,
        "meta_rev_at_epoch": 49294,
        "meta_bstar": -2.7598e-05,
        "meta_mean_motion_dot": -1.34e-06,
        "meta_mean_motion_ddot": 0,
        "tle_line1": "1 41727U 16049A   25354.85218899 -.00000134  00000+0 -27598-4 0  9994",
        "tle_line2": "2 41727  98.4031   0.3147 0001239  57.6749 302.4561 14.42214865492942"
      },
      "geometry": {
        "type": "Point",
        "coordinates": [
          -179.47928681115954,
          -0.6864368582796
        ]
      }
    },
    {
      "type": "Feature",
      "properties": {
        "norad_id": 41771,
        "name": "SKYSAT-C4",
        "group": "resource",
        "lat": -13.113708186534367,
        "lon": 21.568503086833303,
        "alt_km": 444.60296539127194,
        "timestamp": "2025-12-21T03:56:50.511956+00:00",
        "meta_object_name": "SKYSAT-C4",
        "meta_object_id": "2016-058B",
        "meta_epoch": "2025-12-20T12:26:05.053920",
        "meta_mean_motion": 15.42456678,
        "meta_eccentricity": 0.0002175,
        "meta_inclination": 96.936,
        "meta_ra_of_asc_node": 19.3283,
        "meta_arg_of_pericenter": 127.8827,
        "meta_mean_anomaly": 232.2618,
        "meta_ephemeris_type": 0,
        "meta_classification_type": "U",
        "meta_norad_cat_id": 41771,
        "meta_element_set_no": 999,
        "meta_rev_at_epoch": 51787,
        "meta_bstar": 0.00023302,
        "meta_mean_motion_dot": 0.00010007,
        "meta_mean_motion_ddot": 0,
        "tle_line1": "1 41771U 16058B   25354.51811405  .00010007  00000+0  23302-3 0  9994",
        "tle_line2": "2 41771  96.9360  19.3283 0002175 127.8827 232.2618 15.42456678517871"
      },
      "geometry": {
        "type": "Point",
        "coordinates": [
          21.568503086833303,
          -13.113708186534367
        ]
      }
    },
    {
      "type": "Feature",
      "properties": {
        "norad_id": 41772,
        "name": "SKYSAT-C5",
        "group": "resource",
        "lat": 10.934005222406393,
        "lon": 37.18973845990536,
        "alt_km": 466.6913239809319,
        "timestamp": "2025-12-21T03:56:50.511965+00:00",
        "meta_object_name": "SKYSAT-C5",
        "meta_object_id": "2016-058C",
        "meta_epoch": "2025-12-20T16:56:26.241792",
        "meta_mean_motion": 15.34007907,
        "meta_eccentricity": 0.0003793,
        "meta_inclination": 97.0746,
        "meta_ra_of_asc_node": 38.1251,
        "meta_arg_of_pericenter": 253.8673,
        "meta_mean_anomaly": 106.2153,
        "meta_ephemeris_type": 0,
        "meta_classification_type": "U",
        "meta_norad_cat_id": 41772,
        "meta_element_set_no": 999,
        "meta_rev_at_epoch": 51638,
        "meta_bstar": 0.000182,
        "meta_mean_motion_dot": 5.914e-05,
        "meta_mean_motion_ddot": 0,
        "tle_line1": "1 41772U 16058C   25354.70585928  .00005914  00000+0  18200-3 0  9996",
        "tle_line2": "2 41772  97.0746  38.1251 0003793 253.8673 106.2153 15.34007907516389"
      },
      "geometry": {
        "type": "Point",
        "coordinates": [
          37.18973845990536,
          10.934005222406393
        ]
      }
    }
  ]
}